     2.100          NAVIGATION                              RINEX VERSION / TYPE
fic2rin                                 04/07/2013 00:16:14 PGM / RUN BY / DATE
                                                            END OF HEADER
23 13  4  6  8  0  0.0  .978782773018D-04 -.363797880709D-11  .000000000000D+00
     .410000000000D+02 -.412500000000D+02  .476198407004D-08 -.228336527581D+01
    -.227056443691D-05  .832976237871D-02  .691972672939D-05  .515372769547D+04
     .547200000000D+06  .000000000000D+00  .164169284792D+01 -.108033418655D-06
     .956069176347D+00  .243718750000D+03 -.290872915586D+01 -.822819988041D-08
    -.413231498465D-09  .100000000000D+01  .173400000000D+04  .000000000000D+00
     .240000000000D+01  .000000000000D+00 -.200234353542D-07  .410000000000D+02
     .540006000000D+06  .400000000000D+01
24 13  4  6  8  0  0.0 -.399863347411D-05 -.682121026330D-12  .000000000000D+00
     .400000000000D+02  .138437500000D+02  .419124601079D-08  .313053569785D+01
     .821426510811D-06  .870682066306D-03  .114347785711D-04  .515369719505D+04
     .547200000000D+06  .502914190292D-07  .266842671676D+01  .186264514923D-08
     .959242412434D+00  .159750000000D+03  .327437187050D+00 -.792390149087D-08
     .489306095849D-10  .100000000000D+01  .173400000000D+04  .000000000000D+00
     .240000000000D+01  .000000000000D+00  .325962901115D-08  .400000000000D+02
     .540006000000D+06  .400000000000D+01
25 13  4  6  8  0  0.0  .846879556775D-04  .363797880709D-11  .000000000000D+00
     .179000000000D+03  .539062500000D+02  .445268547222D-08  .124620167003D+01
     .263936817646D-05  .242531870026D-02  .543147325516D-05  .515356314659D+04
     .547200000000D+06  .428408384323D-07 -.256690896348D+01  .838190317154D-07
     .972465208154D+00  .278906250000D+03  .577607042235D+00 -.827641617453D-08
     .382158775590D-09  .100000000000D+01  .173400000000D+04  .000000000000D+00
     .240000000000D+01  .000000000000D+00  .558793544769D-08  .179000000000D+03
     .540006000000D+06  .400000000000D+01
26 13  4  6  8  0  0.0 -.379923731089D-04  .148929757415D-10  .000000000000D+00
     .350000000000D+02 -.536875000000D+02  .407159816984D-08 -.235393530873D+01
    -.270083546638D-05  .212804133771D-01  .672787427902D-05  .515366128540D+04
     .547200000000D+06  .216066837311D-06  .172122214665D+01 -.104308128357D-06
     .979273647912D+00  .255375000000D+03  .122957232327D+01 -.764388982726D-08
    -.358586365133D-09  .100000000000D+01  .173400000000D+04  .000000000000D+00
     .240000000000D+01  .000000000000D+00 -.605359673500D-08  .350000000000D+02
     .540006000000D+06  .400000000000D+01
27 13  4  6  8  0  0.0 -.180259812623D-03  .125055521494D-11  .000000000000D+00
     .700000000000D+01  .426250000000D+02  .570273754191D-08 -.164611708670D+00
     .231526792049D-05  .605048728175D-02  .495649874210D-05  .515365299416D+04
     .547200000000D+06  .540167093277D-07 -.255052694789D+01  .596046447754D-07
     .977296718937D+00  .293718750000D+03  .833967349379D+00 -.828070206734D-08
     .378587198248D-09  .100000000000D+01  .173400000000D+04  .000000000000D+00
     .240000000000D+01  .630000000000D+02 -.190921127796D-07  .700000000000D+01
     .540006000000D+06  .400000000000D+01
28 13  4  6  8  0  0.0  .247478485107D-03  .341060513165D-11  .000000000000D+00
     .400000000000D+02  .451250000000D+02  .441482675240D-08 -.347087393812D+00
     .240653753281D-05  .185962531250D-01  .573322176933D-05  .515363712311D+04
     .547200000000D+06 -.219792127609D-06 -.250458582256D+01  .178813934326D-06
     .982739834807D+00  .286906250000D+03 -.177238546820D+01 -.849463955012D-08
     .481091467962D-09  .100000000000D+01  .173400000000D+04  .000000000000D+00
     .240000000000D+01  .000000000000D+00 -.107102096081D-07  .400000000000D+02
     .540006000000D+06  .400000000000D+01
29 13  4  6  8  0  0.0  .423796009272D-03  .352429196937D-11  .000000000000D+00
     .700000000000D+02 -.719375000000D+02  .471519640686D-08  .174111034677D+01
    -.377744436264D-05  .196644337848D-02  .627338886261D-05  .515367175484D+04
     .547200000000D+06  .372529029846D-08 -.146459873661D+01 -.242143869400D-07
     .965313444928D+00  .264843750000D+03 -.107503945454D+01 -.823462871962D-08
    -.256082095419D-09  .100000000000D+01  .173400000000D+04  .000000000000D+00
     .340000000000D+01  .000000000000D+00 -.977888703346D-08  .700000000000D+02
     .540006000000D+06  .400000000000D+01
30 13  4  6  8  0  0.0  .288803130388D-05  .244426701101D-10  .000000000000D+00
     .980000000000D+02  .565000000000D+02  .465483674978D-08 -.112459234175D+01
     .319629907608D-05  .109118026448D-01  .572390854359D-05  .515363903427D+04
     .547200000000D+06 -.109896063805D-06 -.266062137441D+01  .126659870148D-06
     .963544894004D+00  .273468750000D+03  .161268693333D+01 -.843035115796D-08
     .459662003910D-09  .100000000000D+01  .173400000000D+04  .000000000000D+00
     .240000000000D+02  .630000000000D+02 -.419095158577D-08  .980000000000D+02
     .540006000000D+06  .400000000000D+01
31 13  4  6  8  0  0.0  .309527851641D-03  .147792889038D-11  .000000000000D+00
     .800000000000D+01  .297812500000D+02  .371515475111D-08  .233109237542D+01
     .170245766640D-05  .797938380856D-02  .113062560558D-04  .515357230759D+04
     .547200000000D+06  .000000000000D+00  .270038497705D+01  .651925802231D-07
     .980723290010D+00  .171437500000D+03 -.747302834494D+00 -.754174271528D-08
    -.353586156854D-10  .100000000000D+01  .173400000000D+04  .000000000000D+00
     .240000000000D+01  .000000000000D+00 -.130385160446D-07  .800000000000D+01
     .540006000000D+06  .400000000000D+01
32 13  4  6  8  0  0.0 -.548471696675D-03 -.261479726760D-11  .000000000000D+00
     .840000000000D+02  .538437500000D+02  .503520973670D-08  .289912169446D+01
     .272691249847D-05  .115649498766D-01  .571645796299D-05  .515371993637D+04
     .547200000000D+06 -.147148966789D-06  .668282757071D+00  .121071934700D-06
     .949777826927D+00  .262468750000D+03 -.377125383940D+00 -.827141596625D-08
     .154649298907D-09  .100000000000D+01  .173400000000D+04  .000000000000D+00
     .240000000000D+01  .000000000000D+00 -.325962901115D-08  .840000000000D+02
     .540006000000D+06  .400000000000D+01
22 13  4  6  7 59 44.0  .163464341313D-03  .125055521494D-11  .000000000000D+00
     .000000000000D+00  .565625000000D+02  .575238246696D-08 -.229714557791D+00
     .299699604511D-05  .639489851892D-02  .518560409546D-05  .515364891434D+04
     .547184000000D+06 -.260770320892D-07  .585777847861D+00  .260770320892D-07
     .925639103693D+00  .258531250000D+03 -.204447110018D+01 -.891394273007D-08
     .153934983439D-09  .100000000000D+01  .173400000000D+04  .000000000000D+00
     .240000000000D+01  .000000000000D+00 -.172294676304D-07  .000000000000D+00
     .543456000000D+06  .400000000000D+01
22 13  4  6  9 59 44.0  .163473188877D-03  .125055521494D-11  .000000000000D+00
     .800000000000D+01  .624687500000D+02  .575631120204D-08  .820408007892D+00
     .338815152645D-05  .639684393536D-02  .609084963799D-05  .515365275383D+04
     .554384000000D+06 -.316649675369D-07  .585713321471D+00  .109896063805D-06
     .925640363265D+00  .245625000000D+03 -.204438977656D+01 -.891394273007D-08
     .218937691062D-09  .100000000000D+01  .173400000000D+04  .000000000000D+00
     .240000000000D+01  .000000000000D+00 -.172294676304D-07  .800000000000D+01
     .547206000000D+06  .400000000000D+01
 1 13  4  6 10  0  0.0  .137314200401D-04  .341060513165D-11  .000000000000D+00
     .380000000000D+02 -.112500000000D+01  .439232581514D-08 -.224968823892D+01
    -.180676579475D-06  .170795503072D-02  .126659870148D-04  .515370785141D+04
     .554400000000D+06 -.223517417908D-07 -.464644573603D+00 -.111758708954D-07
     .960482373020D+00  .134937500000D+03  .309801809083D+00 -.789961476495D-08
     .120719314158D-09  .100000000000D+01  .173400000000D+04  .000000000000D+00
     .240000000000D+01  .000000000000D+00  .838190317154D-08  .380000000000D+02
     .547206000000D+06  .400000000000D+01
 2 13  4  6 10  0  0.0  .425925478339D-03  .193267624127D-11  .000000000000D+00
     .800000000000D+02 -.238750000000D+02  .490627579465D-08 -.144934767081D+01
    -.123679637909D-05  .122500843136D-01  .120513141155D-04  .515364278412D+04
     .554400000000D+06  .182539224625D-06 -.485161203837D+00 -.106170773506D-06
     .938982609172D+00  .132937500000D+03 -.262860862335D+01 -.808640825993D-08
     .205008539429D-09  .100000000000D+01  .173400000000D+04  .000000000000D+00
     .240000000000D+01  .000000000000D+00 -.176951289177D-07  .800000000000D+02
     .547206000000D+06  .400000000000D+01
 3 13  4  6 10  0  0.0  .190499704331D-03  .500222085975D-11  .000000000000D+00
     .290000000000D+02 -.600312500000D+02  .550951520771D-08 -.127757622162D+01
    -.273808836937D-05  .160748882918D-01  .472180545330D-05  .515368177605D+04
     .554400000000D+06  .689178705215D-07 -.165440588837D+01  .391155481339D-06
     .933634742435D+00  .271250000000D+03  .127871786094D+01 -.875393606515D-08
    -.164649715464D-09  .100000000000D+01  .173400000000D+04  .000000000000D+00
     .340000000000D+01  .000000000000D+00 -.465661287308D-08  .290000000000D+02
     .547206000000D+06  .400000000000D+01
 4 13  4  6 10  0  0.0  .182547606528D-03  .109139364213D-10  .000000000000D+00
     .780000000000D+02 -.208437500000D+02  .496484966306D-08  .177979803608D+01
    -.108592212200D-05  .103084899019D-01  .128895044327D-04  .515378055191D+04
     .554400000000D+06 -.249594449997D-06 -.468662428368D+00 -.102445483208D-06
     .938028202880D+00  .121500000000D+03  .968591442041D+00 -.819319842246D-08
     .102861427448D-09  .100000000000D+01  .173400000000D+04  .000000000000D+00
     .240000000000D+01  .000000000000D+00 -.605359673500D-08  .780000000000D+02
     .547206000000D+06  .400000000000D+01
